*******************************************************************************
 Revised: July 31, 2013                  Sun                                 10

 PHYSICAL PROPERTIES (updated 2018-Aug-15):
  GM, km^3/s^2          = 132712440041.93938  Mass, 10^24 kg        = ~1988500
  Vol. mean radius, km  = 695700              Volume, 10^12 km^3    = 1412000
  Solar radius (IAU)    = 696000 km           Mean density, g/cm^3  = 1.408
  Radius (photosphere)  = 696500 km           Angular diam at 1 AU  = 1919.3"
  Photosphere temp., K  = 6600 (bottom)       Photosphere temp., K  = 4400(top)
  Photospheric depth    = ~500 km             Chromospheric depth   = ~2500 km
  Flatness, f           = 0.00005             Adopted sid. rot. per.= 25.38 d
  Surface gravity       =  274.0 m/s^2        Escape speed, km/s    =  617.7
  Pole (RA,DEC), deg.   = (286.13, 63.87)     Obliquity to ecliptic = 7.25 deg.
  Solar constant (1 AU) = 1367.6 W/m^2        Luminosity, 10^24 J/s = 382.8
  Mass-energy conv rate = 4.260 x 10^9 kg/s   Effective temp, K     = 5772
  Sunspot cycle         = 11.4 yr             Cycle 24 sunspot min. = 2008 A.D.

  Motion relative to nearby stars = apex : R.A.= 271 deg.; DEC.= +30 deg.
                                    speed: 19.4 km/s (0.0112 au/day)
  Motion relative to 2.73K BB/CBR = apex : l= 264.7 +- 0.8; b= 48.2 +- 0.5 deg.
                                    speed: 369 +-11 km/s
*******************************************************************************
 

 

*******************************************************************************
Ephemeris / WWW_USER Sat Mar  9 19:42:53 2019 Pasadena, USA      / Horizons    
*******************************************************************************
Target body name: Sun (10)                        {source: DE431mx}
Center body name: Solar System Barycenter (0)     {source: DE431mx}
Center-site name: BODY CENTER
*******************************************************************************
Start time      : A.D. 1970-Jan-01 00:00:00.0000 TDB
Stop  time      : A.D. 2100-Jan-01 00:00:00.0000 TDB
Step-size       : 1 calendar years
*******************************************************************************
Center geodetic : 0.00000000,0.00000000,0.0000000 {E-lon(deg),Lat(deg),Alt(km)}
Center cylindric: 0.00000000,0.00000000,0.0000000 {E-lon(deg),Dxy(km),Dz(km)}
Center radii    : (undefined)                                                  
Output units    : KM-S                                                         
Output type     : GEOMETRIC cartesian states
Output format   : 2 (position and velocity)
Reference frame : ICRF/J2000.0                                                 
Coordinate systm: Earth Mean Equator and Equinox of Reference Epoch            
*******************************************************************************
            JDTDB,            Calendar Date (TDB),                      X,                      Y,                      Z,                     VX,                     VY,                     VZ,
**************************************************************************************************************************************************************************************************
$$SOE
2477842.500000000, A.D. 2072-Jan-01 00:00:00.0000,  7.789288995448120E+04, -4.547592756408968E+05, -2.016520020138994E+05,  9.905832691233527E-03, -3.337770012769266E-03, -1.674112020321649E-03,
2478208.500000000, A.D. 2073-Jan-01 00:00:00.0000,  4.116643603235240E+05, -4.718977891221598E+05, -2.171576366658324E+05,  1.083231079709550E-02,  2.372377611213367E-03,  7.567021020121960E-04,
2478573.500000000, A.D. 2074-Jan-01 00:00:00.0000,  7.158684778938590E+05, -3.107537773279920E+05, -1.551555609826570E+05,  8.113299999378706E-03,  7.547618692524518E-03,  3.058689713656515E-03,
2478938.500000000, A.D. 2075-Jan-01 00:00:00.0000,  8.978510612132666E+05, -1.619521877682277E+04, -3.265965577364277E+04,  3.268808874284456E-03,  1.081095575622153E-02,  4.582212449626860E-03,
2479303.500000000, A.D. 2076-Jan-01 00:00:00.0000,  9.026235335070248E+05,  3.390454580811271E+05,  1.205085703820545E+05, -2.748244624777153E-03,  1.128997269512479E-02,  4.941751707209003E-03,
2479669.500000000, A.D. 2077-Jan-01 00:00:00.0000,  7.184585031221720E+05,  6.726246629747869E+05,  2.692442361634150E+05, -8.629081200870361E-03,  9.354882365756096E-03,  4.270238105102950E-03,
2480034.500000000, A.D. 2078-Jan-01 00:00:00.0000,  3.729251809769815E+05,  9.023700845191305E+05,  3.776151354122296E+05, -1.276478550284955E-02,  5.008368397054618E-03,  2.508192219255254E-03,
2480399.500000000, A.D. 2079-Jan-01 00:00:00.0000, -7.113025146711727E+04,  9.684776776543937E+05,  4.184329353161370E+05, -1.465151491248828E-02, -1.029755942400109E-03, -2.768620532234542E-05,
2480764.500000000, A.D. 2080-Jan-01 00:00:00.0000, -5.184541469245020E+05,  8.375500958366930E+05,  3.749283745502137E+05, -1.306123010707267E-02, -7.171705254568982E-03, -2.694874353175039E-03,
2481130.500000000, A.D. 2081-Jan-01 00:00:00.0000, -8.630053688100433E+05,  5.228264848987259E+05,  2.501952807936828E+05, -7.946718221121439E-03, -1.227794149446661E-02, -5.016028952650664E-03,
2481495.500000000, A.D. 2082-Jan-01 00:00:00.0000, -1.007186095052361E+06,  9.718798431597868E+04,  7.298085329126622E+04, -8.092235502589278E-04, -1.417433610578476E-02, -5.999432523107073E-03,
2481860.500000000, A.D. 2083-Jan-01 00:00:00.0000, -9.143173937391565E+05, -3.296918347823713E+05, -1.107079823962578E+05,  6.630146723356835E-03, -1.217353824387400E-02, -5.330897875025994E-03,
2482225.500000000, A.D. 2084-Jan-01 00:00:00.0000, -6.237069736032155E+05, -6.435990772102923E+05, -2.509699626693063E+05,  1.153429205251748E-02, -7.337526387653883E-03, -3.387273102031056E-03,
2482591.500000000, A.D. 2085-Jan-01 00:00:00.0000, -2.310358702256483E+05, -7.766395707822663E+05, -3.165322920352287E+05,  1.278313947068145E-02, -1.061452526881672E-03, -7.325913878872928E-04,
2482956.500000000, A.D. 2086-Jan-01 00:00:00.0000,  1.468100537477189E+05, -7.220704065439703E+05, -3.016959949792602E+05,  1.086437606768948E-02,  4.390609895100876E-03,  1.631482113771548E-03,
2483321.500000000, A.D. 2087-Jan-01 00:00:00.0000,  4.192929717672346E+05, -5.229763235070721E+05, -2.227631604196900E+05,  6.371092429574315E-03,  7.818545590887242E-03,  3.197718067924669E-03,
2483686.500000000, A.D. 2088-Jan-01 00:00:00.0000,  5.346835219335845E+05, -2.509577343647301E+05, -1.092491695567484E+05,  9.681567677408680E-04,  9.019783310108758E-03,  3.830771291504363E-03,
2484052.500000000, A.D. 2089-Jan-01 00:00:00.0000,  4.789265473526933E+05,  1.475016823803037E+04,  5.265375718024960E+03, -4.090417687796509E-03,  7.474214975153225E-03,  3.270343684225733E-03,
2484417.500000000, A.D. 2090-Jan-01 00:00:00.0000,  2.796576011881185E+05,  1.996134659620713E+05,  8.817219401153465E+04, -8.030314362802334E-03,  3.877423164988200E-03,  1.817883641807264E-03,
2484782.500000000, A.D. 2091-Jan-01 00:00:00.0000, -1.901992385244843E+03,  2.449976292365585E+05,  1.128520751716855E+05, -9.231788319827721E-03, -1.032916478015473E-03, -2.715018632579228E-04,
2485147.500000000, A.D. 2092-Jan-01 00:00:00.0000, -2.778246330533809E+05,  1.262021309184570E+05,  6.672985725594305E+04, -7.438897962631941E-03, -6.374530870254781E-03, -2.617043313005397E-03,
2485513.500000000, A.D. 2093-Jan-01 00:00:00.0000, -4.450718574541715E+05, -1.376071352809212E+05, -4.447818874322232E+04, -2.602128933659766E-03, -9.936660154473838E-03, -4.261641524964378E-03,
2485878.500000000, A.D. 2094-Jan-01 00:00:00.0000, -4.235519772656780E+05, -4.714073615255554E+05, -1.904117134687424E+05,  4.283140046968637E-03, -1.052128489815038E-02, -4.689881244127868E-03,
2486243.500000000, A.D. 2095-Jan-01 00:00:00.0000, -1.914884767177277E+05, -7.640619889886199E+05, -3.238388823178303E+05,  1.037361425112268E-02, -7.517468751698032E-03, -3.547451530331106E-03,
2486608.500000000, A.D. 2096-Jan-01 00:00:00.0000,  1.976034103358392E+05, -9.136336248250561E+05, -3.997220560896751E+05,  1.382372556901953E-02, -1.649579179084545E-03, -1.109294231223266E-03,
2486974.500000000, A.D. 2097-Jan-01 00:00:00.0000,  6.371809812682876E+05, -8.661074876793281E+05, -3.921577840305071E+05,  1.360554233544097E-02,  4.693963398645026E-03,  1.616946991549543E-03,
2487339.500000000, A.D. 2098-Jan-01 00:00:00.0000,  1.010946075259582E+06, -6.297151131674323E+05, -3.017781857072449E+05,  9.816519588418381E-03,  9.943480594486472E-03,  3.974502235718331E-03,
2487704.500000000, A.D. 2099-Jan-01 00:00:00.0000,  1.233515380926806E+06, -2.621328114094046E+05, -1.511877671356295E+05,  4.158855461031999E-03,  1.302319164294859E-02,  5.441083507427194E-03,
2488069.500000000, A.D. 2100-Jan-01 00:00:00.0000,  1.257789183197721E+06,  1.567329987947056E+05,  2.661921520598901E+04, -2.359301534861480E-03,  1.310635125660246E-02,  5.644288969124508E-03,
